{
    "links": {
        "self": "http://www.neowsapp.com/rest/v1/neo/3769882?api_key=iIulBulltgU6a56xZRHN4H3l9WmuAYTsLGpBGhQ2"
    },
    "id": "3769882",
    "neo_reference_id": "3769882",
    "name": "(2017 DD36)",
    "designation": "2017 DD36",
    "nasa_jpl_url": "http://ssd.jpl.nasa.gov/sbdb.cgi?sstr=3769882",
    "absolute_magnitude_h": 26.7,
    "estimated_diameter": {
        "kilometers": {
            "estimated_diameter_min": 0.0121494041,
            "estimated_diameter_max": 0.0271668934
        },
        "meters": {
            "estimated_diameter_min": 12.14940408,
            "estimated_diameter_max": 27.1668934089
        },
        "miles": {
            "estimated_diameter_min": 0.0075492874,
            "estimated_diameter_max": 0.0168807197
        },
        "feet": {
            "estimated_diameter_min": 39.8602508817,
            "estimated_diameter_max": 89.1302305717
        }
    },
    "is_potentially_hazardous_asteroid": false,
    "close_approach_data": [
        {
            "close_approach_date": "2017-02-22",
            "close_approach_date_full": "2017-Feb-22 15:15",
            "epoch_date_close_approach": 1487776500000,
            "relative_velocity": {
                "kilometers_per_second": "8.4956975633",
                "kilometers_per_hour": "30584.5112277032",
                "miles_per_hour": "19004.0258792359"
            },
            "miss_distance": {
                "astronomical": "0.0063895079",
                "lunar": "2.4855185731",
                "kilometers": "955856.772188173",
                "miles": "593941.8567878674"
            },
            "orbiting_body": "Earth"
        },
        {
            "close_approach_date": "2017-02-22",
            "close_approach_date_full": "2017-Feb-22 15:44",
            "epoch_date_close_approach": 1487778240000,
            "relative_velocity": {
                "kilometers_per_second": "9.4563406843",
                "kilometers_per_hour": "34042.8264635796",
                "miles_per_hour": "21152.8884767725"
            },
            "miss_distance": {
                "astronomical": "0.0087325578",
                "lunar": "3.3969649842",
                "kilometers": "1306372.046531886",
                "miles": "811741.9487405868"
            },
            "orbiting_body": "Moon"
        },
        {
            "close_approach_date": "2147-12-07",
            "close_approach_date_full": "2147-Dec-07 12:05",
            "epoch_date_close_approach": 5615006700000,
            "relative_velocity": {
                "kilometers_per_second": "16.7422303899",
                "kilometers_per_hour": "60272.0294038196",
                "miles_per_hour": "37450.6951592789"
            },
            "miss_distance": {
                "astronomical": "0.2886090101",
                "lunar": "112.2689049289",
                "kilometers": "43175293.173768487",
                "miles": "26827883.1527076406"
            },
            "orbiting_body": "Earth"
        }
    ],
    "orbital_data": {
        "orbit_id": "6",
        "orbit_determination_date": "2017-04-06 08:19:58",
        "first_observation_date": "2017-02-24",
        "last_observation_date": "2017-03-02",
        "data_arc_in_days": 6,
        "observations_used": 38,
        "orbit_uncertainty": "7",
        "minimum_orbit_intersection": ".00526621",
        "jupiter_tisserand_invariant": "3.714",
        "epoch_osculation": "2459000.5",
        "eccentricity": ".5101905201422626",
        "semi_major_axis": "1.954128195546099",
        "inclination": "4.503893699810481",
        "ascending_node_longitude": "156.2917265867161",
        "orbital_period": "997.7643980417826",
        "perihelion_distance": ".9571505150357736",
        "perihelion_argument": "330.3137293675974",
        "aphelion_distance": "2.951105876056424",
        "perihelion_time": "2458782.799456440585",
        "mean_anomaly": "78.54779729082649",
        "mean_motion": ".3608066199861789",
        "equinox": "J2000",
        "orbit_class": {
            "orbit_class_type": "APO",
            "orbit_class_description": "Near-Earth asteroid orbits which cross the Earth’s orbit similar to that of 1862 Apollo",
            "orbit_class_range": "a (semi-major axis) > 1.0 AU; q (perihelion) < 1.017 AU"
        }
    },
    "is_sentry_object": false
}